IRIDIUM 36 [-]          
1 24967U 97056C   23347.60387602  .00000339  00000+0  10871-3 0  9990
2 24967  86.3978  44.5872 0002152  90.2883 269.8561 14.36544843373003
IRIDIUM 39 [-]          
1 25042U 97069D   23347.32654106  .00000572  00000+0  14981-3 0  9999
2 25042  86.3918  87.5143 0017938 354.2863   5.8133 14.47559418369081
IRIDIUM 38 [-]          
1 25043U 97069E   23347.39192934  .00000410  00000+0  13185-3 0  9999
2 25043  86.3958 105.1573 0003857 110.0775 250.0837 14.37006424366686
IRIDIUM 42 [-]          
1 25077U 97077A   23347.43305723  .00000384  00000+0  12741-3 0  9999
2 25077  86.3961 110.6382 0002655  98.7668 261.3829 14.35306376362021
IRIDIUM 44 [-]          
1 25078U 97077B   23347.40256197  .00000427  00000+0  13183-3 0  9996
2 25078  86.3956  94.0527 0003554  69.5438 290.6142 14.39114829364313
IRIDIUM 45 [-]          
1 25104U 97082A   23347.38586405  .00005715  00000+0  35716-3 0  9998
2 25104  86.3747 309.5486 0173840 195.2387 164.3573 14.97427382368858
IRIDIUM 24 [-]          
1 25105U 97082B   23347.44267256  .00000467  00000+0  13932-3 0  9991
2 25105  86.3895 313.9484 0013800  97.8209 262.4558 14.40875148363739
IRIDIUM 51 [-]          
1 25262U 98018A   23347.41641156  .00006260  00000+0  33259-3 0  9998
2 25262  86.3929 319.9013 0161939 147.3793 213.7574 15.04348875363270
